OBJECT_NAME,OBJECT_ID,EPOCH,MEAN_MOTION,ECCENTRICITY,INCLINATION,RA_OF_ASC_NODE,ARG_OF_PERICENTER,MEAN_ANOMALY,EPHEMERIS_TYPE,CLASSIFICATION_TYPE,NORAD_CAT_ID,ELEMENT_SET_NO,REV_AT_EPOCH,BSTAR,MEAN_MOTION_DOT,MEAN_MOTION_DDOT
STARLINK-37082,2026-050R,2026-07-16T21:27:46.454688,15.34404104,.00012895,53.1590,24.5783,90.1471,269.9679,0,U,68182,999,2049,.30481099E-3,.9937E-4,0
STARLINK-37102,2026-050S,2026-07-16T16:16:05.557440,15.34399471,.00012936,53.1593,25.3642,95.6299,264.4851,0,U,68183,999,2046,.36343431E-3,.11922E-3,0
STARLINK-36964,2026-050T,2026-07-17T12:56:38.404896,15.34404889,.0002188,53.1608,21.4861,112.6555,247.4679,0,U,68184,999,2059,.31289E-3,.10211E-3,0
STARLINK-37061,2026-050U,2026-07-17T12:02:06.537120,15.34401783,.0001879,53.1610,21.2565,62.7695,297.3499,0,U,68185,999,2059,.29922E-3,.9747E-4,0
STARLINK-37079,2026-050V,2026-07-16T12:50:19.278240,15.34399015,.0001389,53.1602,25.8993,107.5394,252.5760,0,U,68186,999,2044,.57171E-3,.18988E-3,0
STARLINK-37006,2026-050W,2026-07-17T11:47:04.345728,15.34406623,.0002505,53.1599,21.8939,84.1257,276.0031,0,U,68187,999,2058,.17741E-3,.5623E-4,0
STARLINK-36305,2026-050Y,2026-07-16T12:29:14.136000,15.34399460,.0001562,53.1602,26.5037,87.7009,272.4173,0,U,68189,999,2033,.35413E-3,.11607E-3,0
STARLINK-37071,2026-050Z,2026-07-17T16:34:31.913760,15.34398552,.0001106,53.1596,21.0028,83.3213,276.7916,0,U,68190,999,2061,.21738E-3,.6975E-4,0
STARLINK-37091,2026-050AA,2026-07-17T12:53:36.730752,15.34408321,.0002147,53.1587,21.4628,74.7565,285.3675,0,U,68191,999,2059,.40536E-3,.13348E-3,0
STARLINK-37098,2026-050AB,2026-07-17T12:41:29.799168,15.34400602,.0001523,53.1602,21.4170,88.3531,271.7646,0,U,68192,999,2059,.29484E-3,.9598E-4,0
STARLINK-37090,2026-050AC,2026-07-17T12:59:38.279328,15.34446163,.0001397,53.1608,21.4939,120.8555,239.2585,0,U,68193,999,2059,.61753E-3,.20576E-3,0
STARLINK-37093,2026-050AD,2026-07-17T12:47:33.062784,15.34405705,.0001404,53.1591,21.4421,99.3420,260.7741,0,U,68194,999,2059,.41326E-3,.13614E-3,0
STARLINK-37058,2026-050AE,2026-07-17T12:14:13.655328,15.34416355,.0001587,53.1590,21.2955,91.7485,268.3699,0,U,68195,999,1903,.34727E-3,.11381E-3,0
STARLINK-36986,2026-053A,2026-07-17T14:33:34.889184,15.33447169,.0002665,97.2863,73.2302,94.9284,265.2263,0,U,68207,999,2012,.28773E-3,.9227E-4,0
STARLINK-37009,2026-053B,2026-07-17T14:29:39.299712,15.33438013,.0003124,97.2876,73.2352,105.2621,254.8967,0,U,68208,999,2012,.13785E-3,.4377E-4,0
STARLINK-36948,2026-053C,2026-07-17T14:25:44.940576,15.33446008,.0002107,97.2863,73.2379,101.5618,258.5862,0,U,68209,999,2010,.32554E-3,.1045E-3,0
STARLINK-37119,2026-053D,2026-07-16T14:52:19.258176,15.33384099,.0001809,97.2858,72.2752,95.3864,264.7585,0,U,68210,999,1997,-.90466E-3,-.29115E-3,0
STARLINK-37120,2026-053E,2026-07-17T14:17:55.049856,15.33449643,.0001771,97.2855,73.2435,94.9082,265.2363,0,U,68211,999,2010,.34144E-3,.10966E-3,0
STARLINK-37117,2026-053F,2026-07-17T14:14:00.288096,15.33452047,.0001264,97.2861,73.2495,74.0589,286.0793,0,U,68212,999,2012,.27989E-3,.8973E-4,0
STARLINK-37116,2026-053G,2026-07-17T14:10:05.325024,15.33443708,.0000904,97.2858,73.2499,41.1176,319.0135,0,U,68213,999,2012,.25442E-3,.8147E-4,0
STARLINK-35854,2026-053H,2026-07-17T02:29:14.611776,15.33446766,.00012338,97.2850,72.8312,71.6889,288.4488,0,U,68214,999,2003,.30394779E-3,.9751E-4,0
STARLINK-36272,2026-053J,2026-07-17T14:02:15.418752,15.33443092,.0001868,97.2855,73.2550,94.8966,265.2490,0,U,68215,999,2010,.24132E-3,.7723E-4,0
STARLINK-37014,2026-053K,2026-07-17T03:00:33.787584,15.33455679,.00011563,97.2868,72.8141,93.7742,266.3633,0,U,68216,999,2005,.24703928E-3,.7911E-4,0
STARLINK-37011,2026-053L,2026-07-17T02:56:39.334272,15.33444925,.00026319,97.2846,72.8158,87.7366,272.4178,0,U,68217,999,2005,.12395834E-3,.3929E-4,0
STARLINK-37108,2026-053M,2026-07-17T02:52:44.643360,15.33440049,.00015041,97.2857,72.8199,93.0441,267.0974,0,U,68218,999,2005,.32029583E-3,.10278E-3,0
STARLINK-37106,2026-053N,2026-07-17T16:54:31.919040,15.33437776,.0002005,97.2855,73.4042,98.1849,261.9621,0,U,68219,999,2014,.165E-3,.5254E-4,0
STARLINK-37030,2026-053P,2026-07-17T15:12:44.139744,15.33445782,.0003009,97.2861,73.3437,98.7998,261.3586,0,U,68220,999,2013,.3727E-3,.11978E-3,0
STARLINK-37012,2026-053Q,2026-07-17T15:16:40.732320,15.33413867,.0001191,97.2864,73.3417,80.4383,279.6994,0,U,68221,999,2013,.32082E-3,.10286E-3,0
STARLINK-37110,2026-053R,2026-07-17T16:42:47.225088,15.33438286,.0002371,97.2838,73.4135,95.8338,264.3175,0,U,68222,999,2014,.2123E-3,.6784E-4,0
STARLINK-37025,2026-053S,2026-07-17T02:33:09.061632,15.33458669,.00019044,97.2839,72.8384,90.0233,270.1228,0,U,68223,999,2005,.29637429E-3,.9509E-4,0
