STARLINK-37082          
1 68182U 26050R   26197.89428767  .00009937  00000+0  30481-3 0  9990
2 68182  53.1590  24.5783 0001289  90.1471 269.9679 15.34404104 20490
STARLINK-37102          
1 68183U 26050S   26197.67784210  .00011922  00000+0  36343-3 0  9995
2 68183  53.1593  25.3642 0001293  95.6299 264.4851 15.34399471 20469
STARLINK-36964          
1 68184U 26050T   26198.53933339  .00010211  00000+0  31289-3 0  9994
2 68184  53.1608  21.4861 0002188 112.6555 247.4679 15.34404889 20599
STARLINK-37061          
1 68185U 26050U   26198.50146455  .00009747  00000+0  29922-3 0  9990
2 68185  53.1610  21.2565 0001879  62.7695 297.3499 15.34401783 20592
STARLINK-37079          
1 68186U 26050V   26197.53494535  .00018988  00000+0  57171-3 0  9992
2 68186  53.1602  25.8993 0001389 107.5394 252.5760 15.34399015 20441
STARLINK-37006          
1 68187U 26050W   26198.49102252  .00005623  00000+0  17741-3 0  9992
2 68187  53.1599  21.8939 0002505  84.1257 276.0031 15.34406623 20583
STARLINK-36305          
1 68189U 26050Y   26197.52030250  .00011607  00000+0  35413-3 0  9990
2 68189  53.1602  26.5037 0001562  87.7009 272.4173 15.34399460 20337
STARLINK-37071          
1 68190U 26050Z   26198.69064715  .00006975  00000+0  21738-3 0  9991
2 68190  53.1596  21.0028 0001106  83.3213 276.7916 15.34398552 20618
STARLINK-37091          
1 68191U 26050AA  26198.53723068  .00013348  00000+0  40536-3 0  9997
2 68191  53.1587  21.4628 0002147  74.7565 285.3675 15.34408321 20590
STARLINK-37098          
1 68192U 26050AB  26198.52881712  .00009598  00000+0  29484-3 0  9999
2 68192  53.1602  21.4170 0001523  88.3531 271.7646 15.34400602 20593
STARLINK-37090          
1 68193U 26050AC  26198.54141527  .00020576  00000+0  61753-3 0  9999
2 68193  53.1608  21.4939 0001397 120.8555 239.2585 15.34446163 20593
STARLINK-37093          
1 68194U 26050AD  26198.53302156  .00013614  00000+0  41326-3 0  9995
2 68194  53.1591  21.4421 0001404  99.3420 260.7741 15.34405705 20591
STARLINK-37058          
1 68195U 26050AE  26198.50988027  .00011381  00000+0  34727-3 0  9996
2 68195  53.1590  21.2955 0001587  91.7485 268.3699 15.34416355 19036
STARLINK-36986          
1 68207U 26053A   26198.60665381  .00009227  00000+0  28773-3 0  9999
2 68207  97.2863  73.2302 0002665  94.9284 265.2263 15.33447169 20126
STARLINK-37009          
1 68208U 26053B   26198.60392708  .00004377  00000+0  13785-3 0  9998
2 68208  97.2876  73.2352 0003124 105.2621 254.8967 15.33438013 20121
STARLINK-36948          
1 68209U 26053C   26198.60121459  .00010450  00000+0  32554-3 0  9996
2 68209  97.2863  73.2379 0002107 101.5618 258.5862 15.33446008 20108
STARLINK-37119          
1 68210U 26053D   26197.61966734 -.00029115  00000+0 -90466-3 0  9997
2 68210  97.2858  72.2752 0001809  95.3864 264.7585 15.33384099 19974
STARLINK-37120          
1 68211U 26053E   26198.59577604  .00010966  00000+0  34144-3 0  9993
2 68211  97.2855  73.2435 0001771  94.9082 265.2363 15.33449643 20100
STARLINK-37117          
1 68212U 26053F   26198.59305889  .00008973  00000+0  27989-3 0  9992
2 68212  97.2861  73.2495 0001264  74.0589 286.0793 15.33452047 20124
STARLINK-37116          
1 68213U 26053G   26198.59033941  .00008147  00000+0  25442-3 0  9995
2 68213  97.2858  73.2499 0000904  41.1176 319.0135 15.33443708 20123
STARLINK-35854          
1 68214U 26053H   26198.10364134  .00009751  00000+0  30395-3 0  9999
2 68214  97.2850  72.8312 0001233  71.6889 288.4488 15.33446766 20037
STARLINK-36272          
1 68215U 26053J   26198.58490068  .00007723  00000+0  24132-3 0  9997
2 68215  97.2855  73.2550 0001868  94.8966 265.2490 15.33443092 20102
STARLINK-37014          
1 68216U 26053K   26198.12539106  .00007911  00000+0  24704-3 0  9999
2 68216  97.2868  72.8141 0001156  93.7742 266.3633 15.33455679 20057
STARLINK-37011          
1 68217U 26053L   26198.12267748  .00003929  00000+0  12396-3 0  9999
2 68217  97.2846  72.8158 0002631  87.7366 272.4178 15.33444925 20050
STARLINK-37108          
1 68218U 26053M   26198.11996115  .00010278  00000+0  32030-3 0  9998
2 68218  97.2857  72.8199 0001504  93.0441 267.0974 15.33440049 20057
STARLINK-37106          
1 68219U 26053N   26198.70453610  .00005254  00000+0  16500-3 0  9994
2 68219  97.2855  73.4042 0002005  98.1849 261.9621 15.33437776 20140
STARLINK-37030          
1 68220U 26053P   26198.63384421  .00011978  00000+0  37270-3 0  9998
2 68220  97.2861  73.3437 0003009  98.7998 261.3586 15.33445782 20131
STARLINK-37012          
1 68221U 26053Q   26198.63658255  .00010286  00000+0  32082-3 0  9995
2 68221  97.2864  73.3417 0001191  80.4383 279.6994 15.33413867 20133
STARLINK-37110          
1 68222U 26053R   26198.69637992  .00006784  00000+0  21230-3 0  9998
2 68222  97.2838  73.4135 0002371  95.8338 264.3175 15.33438286 20149
STARLINK-37025          
1 68223U 26053S   26198.10635488  .00009509  00000+0  29637-3 0  9990
2 68223  97.2839  72.8384 0001904  90.0233 270.1228 15.33458669 20053
